[{"OBJECT_NAME":"STARLINK-6318","OBJECT_ID":"2023-065AD","EPOCH":"2025-08-19T00:04:21.742752","MEAN_MOTION":15.02535487,"ECCENTRICITY":0.0001027,"INCLINATION":43.0028,"RA_OF_ASC_NODE":205.8009,"ARG_OF_PERICENTER":280.9171,"MEAN_ANOMALY":79.1555,"EPHEMERIS_TYPE":0,"CLASSIFICATION_TYPE":"U","NORAD_CAT_ID":56530,"ELEMENT_SET_NO":999,"REV_AT_EPOCH":12565,"BSTAR":2.14e-5,"MEAN_MOTION_DOT":8.6e-7,"MEAN_MOTION_DDOT":0},{"OBJECT_NAME":"STARLINK-6280","OBJECT_ID":"2023-065AE","EPOCH":"2025-08-19T08:15:25.567488","MEAN_MOTION":15.02551981,"ECCENTRICITY":0.0001313,"INCLINATION":43.0023,"RA_OF_ASC_NODE":217.0787,"ARG_OF_PERICENTER":278.6451,"MEAN_ANOMALY":81.4242,"EPHEMERIS_TYPE":0,"CLASSIFICATION_TYPE":"U","NORAD_CAT_ID":56531,"ELEMENT_SET_NO":999,"REV_AT_EPOCH":12555,"BSTAR":0.00010637,"MEAN_MOTION_DOT":1.234e-5,"MEAN_MOTION_DDOT":0},{"OBJECT_NAME":"STARLINK-6319","OBJECT_ID":"2023-065AF","EPOCH":"2025-08-19T00:31:09.973344","MEAN_MOTION":15.02535994,"ECCENTRICITY":0.0001165,"INCLINATION":43.0022,"RA_OF_ASC_NODE":218.9579,"ARG_OF_PERICENTER":271.756,"MEAN_ANOMALY":88.3149,"EPHEMERIS_TYPE":0,"CLASSIFICATION_TYPE":"U","NORAD_CAT_ID":56532,"ELEMENT_SET_NO":999,"REV_AT_EPOCH":12550,"BSTAR":6.2108e-5,"MEAN_MOTION_DOT":6.35e-6,"MEAN_MOTION_DDOT":0},{"OBJECT_NAME":"STARLINK-6310","OBJECT_ID":"2023-065AG","EPOCH":"2025-08-19T00:07:12.124416","MEAN_MOTION":15.0254117,"ECCENTRICITY":0.0001389,"INCLINATION":43.0028,"RA_OF_ASC_NODE":218.8313,"ARG_OF_PERICENTER":278.4636,"MEAN_ANOMALY":81.6049,"EPHEMERIS_TYPE":0,"CLASSIFICATION_TYPE":"U","NORAD_CAT_ID":56533,"ELEMENT_SET_NO":999,"REV_AT_EPOCH":12550,"BSTAR":5.8891e-5,"MEAN_MOTION_DOT":5.92e-6,"MEAN_MOTION_DDOT":0},{"OBJECT_NAME":"STARLINK-6308","OBJECT_ID":"2023-065AH","EPOCH":"2025-08-19T08:25:00.518880","MEAN_MOTION":15.02536725,"ECCENTRICITY":0.0001107,"INCLINATION":43.0025,"RA_OF_ASC_NODE":217.1264,"ARG_OF_PERICENTER":272.4111,"MEAN_ANOMALY":87.6605,"EPHEMERIS_TYPE":0,"CLASSIFICATION_TYPE":"U","NORAD_CAT_ID":56534,"ELEMENT_SET_NO":999,"REV_AT_EPOCH":12555,"BSTAR":7.3517e-5,"MEAN_MOTION_DOT":7.9e-6,"MEAN_MOTION_DDOT":0},{"OBJECT_NAME":"STARLINK-6309","OBJECT_ID":"2023-065AJ","EPOCH":"2025-08-18T17:43:32.418624","MEAN_MOTION":15.02536806,"ECCENTRICITY":0.0001351,"INCLINATION":43.0032,"RA_OF_ASC_NODE":246.3071,"ARG_OF_PERICENTER":281.7734,"MEAN_ANOMALY":78.2957,"EPHEMERIS_TYPE":0,"CLASSIFICATION_TYPE":"U","NORAD_CAT_ID":56535,"ELEMENT_SET_NO":999,"REV_AT_EPOCH":12594,"BSTAR":4.3892e-5,"MEAN_MOTION_DOT":3.89e-6,"MEAN_MOTION_DDOT":0},{"OBJECT_NAME":"STARLINK-6312","OBJECT_ID":"2023-065AK","EPOCH":"2025-08-18T17:33:57.609792","MEAN_MOTION":15.02545508,"ECCENTRICITY":0.0001167,"INCLINATION":43.0027,"RA_OF_ASC_NODE":246.258,"ARG_OF_PERICENTER":270.96,"MEAN_ANOMALY":89.1109,"EPHEMERIS_TYPE":0,"CLASSIFICATION_TYPE":"U","NORAD_CAT_ID":56536,"ELEMENT_SET_NO":999,"REV_AT_EPOCH":12594,"BSTAR":4.3471e-5,"MEAN_MOTION_DOT":3.84e-6,"MEAN_MOTION_DDOT":0},{"OBJECT_NAME":"STARLINK-6311","OBJECT_ID":"2023-065AL","EPOCH":"2025-08-18T17:38:44.895840","MEAN_MOTION":15.02535616,"ECCENTRICITY":0.0001262,"INCLINATION":43.0035,"RA_OF_ASC_NODE":246.2831,"ARG_OF_PERICENTER":275.8004,"MEAN_ANOMALY":84.2694,"EPHEMERIS_TYPE":0,"CLASSIFICATION_TYPE":"U","NORAD_CAT_ID":56537,"ELEMENT_SET_NO":999,"REV_AT_EPOCH":12594,"BSTAR":2.5074e-5,"MEAN_MOTION_DOT":1.35e-6,"MEAN_MOTION_DDOT":0},{"OBJECT_NAME":"STARLINK-6314","OBJECT_ID":"2023-065AM","EPOCH":"2025-08-18T20:50:56.745312","MEAN_MOTION":15.02531617,"ECCENTRICITY":0.0001239,"INCLINATION":43.0031,"RA_OF_ASC_NODE":219.5274,"ARG_OF_PERICENTER":279.404,"MEAN_ANOMALY":80.6662,"EPHEMERIS_TYPE":0,"CLASSIFICATION_TYPE":"U","NORAD_CAT_ID":56538,"ELEMENT_SET_NO":999,"REV_AT_EPOCH":12626,"BSTAR":4.426e-5,"MEAN_MOTION_DOT":3.94e-6,"MEAN_MOTION_DDOT":0},{"OBJECT_NAME":"STARLINK-6135","OBJECT_ID":"2023-065AN","EPOCH":"2025-08-18T17:24:23.278752","MEAN_MOTION":15.02528463,"ECCENTRICITY":0.0001224,"INCLINATION":43.0021,"RA_OF_ASC_NODE":246.2133,"ARG_OF_PERICENTER":282.5729,"MEAN_ANOMALY":77.4976,"EPHEMERIS_TYPE":0,"CLASSIFICATION_TYPE":"U","NORAD_CAT_ID":56539,"ELEMENT_SET_NO":999,"REV_AT_EPOCH":12594,"BSTAR":8.7284e-5,"MEAN_MOTION_DOT":9.75e-6,"MEAN_MOTION_DDOT":0},{"OBJECT_NAME":"STARLINK-6136","OBJECT_ID":"2023-065AP","EPOCH":"2025-08-18T09:20:55.755744","MEAN_MOTION":15.02534994,"ECCENTRICITY":0.0001311,"INCLINATION":43.003,"RA_OF_ASC_NODE":247.9928,"ARG_OF_PERICENTER":276.6209,"MEAN_ANOMALY":83.4484,"EPHEMERIS_TYPE":0,"CLASSIFICATION_TYPE":"U","NORAD_CAT_ID":56540,"ELEMENT_SET_NO":999,"REV_AT_EPOCH":12511,"BSTAR":2.7569e-5,"MEAN_MOTION_DOT":1.69e-6,"MEAN_MOTION_DDOT":0},{"OBJECT_NAME":"STARLINK-6249","OBJECT_ID":"2023-065AQ","EPOCH":"2025-08-19T09:18:26.911872","MEAN_MOTION":15.02536355,"ECCENTRICITY":0.0001285,"INCLINATION":43.0031,"RA_OF_ASC_NODE":242.5789,"ARG_OF_PERICENTER":270.0365,"MEAN_ANOMALY":90.033,"EPHEMERIS_TYPE":0,"CLASSIFICATION_TYPE":"U","NORAD_CAT_ID":56541,"ELEMENT_SET_NO":999,"REV_AT_EPOCH":12526,"BSTAR":1.4136e-5,"MEAN_MOTION_DOT":-1.3e-7,"MEAN_MOTION_DDOT":0},{"OBJECT_NAME":"STARLINK-6266","OBJECT_ID":"2023-065AR","EPOCH":"2025-08-19T11:02:11.495328","MEAN_MOTION":15.02535475,"ECCENTRICITY":0.0001266,"INCLINATION":43.0035,"RA_OF_ASC_NODE":242.2593,"ARG_OF_PERICENTER":275.7145,"MEAN_ANOMALY":84.3553,"EPHEMERIS_TYPE":0,"CLASSIFICATION_TYPE":"U","NORAD_CAT_ID":56542,"ELEMENT_SET_NO":999,"REV_AT_EPOCH":12527,"BSTAR":7.1422e-5,"MEAN_MOTION_DOT":7.61e-6,"MEAN_MOTION_DDOT":0},{"OBJECT_NAME":"STARLINK-6226","OBJECT_ID":"2023-065AT","EPOCH":"2025-08-18T11:33:14.822784","MEAN_MOTION":15.02536015,"ECCENTRICITY":0.0001209,"INCLINATION":43.0028,"RA_OF_ASC_NODE":246.9705,"ARG_OF_PERICENTER":279.7642,"MEAN_ANOMALY":80.3064,"EPHEMERIS_TYPE":0,"CLASSIFICATION_TYPE":"U","NORAD_CAT_ID":56544,"ELEMENT_SET_NO":999,"REV_AT_EPOCH":12591,"BSTAR":4.2791e-6,"MEAN_MOTION_DOT":-1.46e-6,"MEAN_MOTION_DDOT":0},{"OBJECT_NAME":"STARLINK-6086","OBJECT_ID":"2023-065AU","EPOCH":"2025-08-19T09:02:27.877920","MEAN_MOTION":15.02538154,"ECCENTRICITY":0.000145,"INCLINATION":43.0033,"RA_OF_ASC_NODE":242.4945,"ARG_OF_PERICENTER":278.2721,"MEAN_ANOMALY":81.7957,"EPHEMERIS_TYPE":0,"CLASSIFICATION_TYPE":"U","NORAD_CAT_ID":56545,"ELEMENT_SET_NO":999,"REV_AT_EPOCH":12526,"BSTAR":7.6088e-5,"MEAN_MOTION_DOT":8.24e-6,"MEAN_MOTION_DDOT":0},{"OBJECT_NAME":"STARLINK-6187","OBJECT_ID":"2023-065AV","EPOCH":"2025-08-19T01:15:00.707328","MEAN_MOTION":15.025401,"ECCENTRICITY":0.0001283,"INCLINATION":43.0024,"RA_OF_ASC_NODE":244.3597,"ARG_OF_PERICENTER":280.5233,"MEAN_ANOMALY":79.5465,"EPHEMERIS_TYPE":0,"CLASSIFICATION_TYPE":"U","NORAD_CAT_ID":56546,"ELEMENT_SET_NO":999,"REV_AT_EPOCH":12521,"BSTAR":-9.1548e-6,"MEAN_MOTION_DOT":-3.27e-6,"MEAN_MOTION_DDOT":0},{"OBJECT_NAME":"STARLINK-6291","OBJECT_ID":"2023-065AW","EPOCH":"2025-08-19T03:27:20.207232","MEAN_MOTION":15.02546106,"ECCENTRICITY":0.0001185,"INCLINATION":43.0028,"RA_OF_ASC_NODE":243.3341,"ARG_OF_PERICENTER":275.6626,"MEAN_ANOMALY":84.4081,"EPHEMERIS_TYPE":0,"CLASSIFICATION_TYPE":"U","NORAD_CAT_ID":56547,"ELEMENT_SET_NO":999,"REV_AT_EPOCH":12523,"BSTAR":4.7136e-5,"MEAN_MOTION_DOT":4.33e-6,"MEAN_MOTION_DDOT":0}]
