STARLINK-6318           
1 56530U 23065AD  25231.00302943  .00000086  00000+0  21400-4 0  9993
2 56530  43.0028 205.8009 0001027 280.9171  79.1555 15.02535487125651
STARLINK-6280           
1 56531U 23065AE  25231.34404592  .00001234  00000+0  10637-3 0  9999
2 56531  43.0023 217.0787 0001313 278.6451  81.4242 15.02551981125553
STARLINK-6319           
1 56532U 23065AF  25231.02164321  .00000635  00000+0  62108-4 0  9993
2 56532  43.0022 218.9579 0001165 271.7560  88.3149 15.02535994125505
STARLINK-6310           
1 56533U 23065AG  25231.00500144  .00000592  00000+0  58891-4 0  9995
2 56533  43.0028 218.8313 0001389 278.4636  81.6049 15.02541170125501
STARLINK-6308           
1 56534U 23065AH  25231.35070045  .00000790  00000+0  73517-4 0  9998
2 56534  43.0025 217.1264 0001107 272.4111  87.6605 15.02536725125555
STARLINK-6309           
1 56535U 23065AJ  25230.73856966  .00000389  00000+0  43892-4 0  9991
2 56535  43.0032 246.3071 0001351 281.7734  78.2957 15.02536806125948
STARLINK-6312           
1 56536U 23065AK  25230.73191678  .00000384  00000+0  43471-4 0  9992
2 56536  43.0027 246.2580 0001167 270.9600  89.1109 15.02545508125943
STARLINK-6311           
1 56537U 23065AL  25230.73524185  .00000135  00000+0  25074-4 0  9999
2 56537  43.0035 246.2831 0001262 275.8004  84.2694 15.02535616125944
STARLINK-6314           
1 56538U 23065AM  25230.86871233  .00000394  00000+0  44260-4 0  9998
2 56538  43.0031 219.5274 0001239 279.4040  80.6662 15.02531617126267
STARLINK-6135           
1 56539U 23065AN  25230.72526943  .00000975  00000+0  87284-4 0  9997
2 56539  43.0021 246.2133 0001224 282.5729  77.4976 15.02528463125942
STARLINK-6136           
1 56540U 23065AP  25230.38953421  .00000169  00000+0  27569-4 0  9991
2 56540  43.0030 247.9928 0001311 276.6209  83.4484 15.02534994125114
STARLINK-6249           
1 56541U 23065AQ  25231.38781148 -.00000013  00000+0  14136-4 0  9993
2 56541  43.0031 242.5789 0001285 270.0365  90.0330 15.02536355125266
STARLINK-6266           
1 56542U 23065AR  25231.45985527  .00000761  00000+0  71422-4 0  9999
2 56542  43.0035 242.2593 0001266 275.7145  84.3553 15.02535475125274
STARLINK-6226           
1 56544U 23065AT  25230.48142156 -.00000146  00000+0  42791-5 0  9992
2 56544  43.0028 246.9705 0001209 279.7642  80.3064 15.02536015125912
STARLINK-6086           
1 56545U 23065AU  25231.37671155  .00000824  00000+0  76088-4 0  9995
2 56545  43.0033 242.4945 0001450 278.2721  81.7957 15.02538154125266
STARLINK-6187           
1 56546U 23065AV  25231.05209152 -.00000327  00000+0 -91548-5 0  9994
2 56546  43.0024 244.3597 0001283 280.5233  79.5465 15.02540100125217
STARLINK-6291           
1 56547U 23065AW  25231.14398388  .00000433  00000+0  47136-4 0  9994
2 56547  43.0028 243.3341 0001185 275.6626  84.4081 15.02546106125233
